STARLINK-30080          
1 56705U 23067T   26067.97435950  .00000113  00000+0  23787-4 0  9999
2 56705  42.9996 265.3146 0000854 262.4975  97.5770 15.01721703155703
QPS-SAR-11 (YAMATSUMI-I)
1 64340U 25125A   26068.25519236  .00007204  00000+0  57385-3 0  9990
2 64340  42.0098  22.3823 0010044 210.0400 149.9850 15.00627459 40603
