[{"OBJECT_NAME":"STARLINK-30080","OBJECT_ID":"2023-067T","EPOCH":"2026-03-08T23:23:04.660800","MEAN_MOTION":15.01721703,"ECCENTRICITY":8.544e-5,"INCLINATION":42.9996,"RA_OF_ASC_NODE":265.3146,"ARG_OF_PERICENTER":262.4975,"MEAN_ANOMALY":97.577,"EPHEMERIS_TYPE":0,"CLASSIFICATION_TYPE":"U","NORAD_CAT_ID":56705,"ELEMENT_SET_NO":999,"REV_AT_EPOCH":15570,"BSTAR":2.3786545e-5,"MEAN_MOTION_DOT":1.13e-6,"MEAN_MOTION_DDOT":0},{"OBJECT_NAME":"QPS-SAR-11 (YAMATSUMI-I)","OBJECT_ID":"2025-125A","EPOCH":"2026-03-09T06:07:28.619904","MEAN_MOTION":15.00627459,"ECCENTRICITY":0.00100447,"INCLINATION":42.0098,"RA_OF_ASC_NODE":22.3823,"ARG_OF_PERICENTER":210.04,"MEAN_ANOMALY":149.985,"EPHEMERIS_TYPE":0,"CLASSIFICATION_TYPE":"U","NORAD_CAT_ID":64340,"ELEMENT_SET_NO":999,"REV_AT_EPOCH":4060,"BSTAR":0.0005738522,"MEAN_MOTION_DOT":7.204e-5,"MEAN_MOTION_DDOT":0}]
